IRIDIUM 144             
1 43249U 18030A   25216.13267858  .00000036  00000+0  57790-5 0  9991
2 43249  86.3920  62.9476 0002141  91.3966 268.7475 14.34217275384716
IRIDIUM 149             
1 43250U 18030B   25215.85994697 -.00000001  00000+0 -73842-5 0  9999
2 43250  86.3917  63.0320 0001992  91.4520 268.6904 14.34217378384679
IRIDIUM 157             
1 43251U 18030C   25215.80920673  .00000026  00000+0  21141-5 0  9998
2 43251  86.3922  63.0997 0002336  85.5539 274.5924 14.34217569384640
IRIDIUM 140             
1 43252U 18030D   25215.61892805  .00000032  00000+0  43541-5 0  9998
2 43252  86.3921  63.1928 0001990  90.5318 269.6106 14.34217636384676
IRIDIUM 145             
1 43253U 18030E   25215.81554856  .00000035  00000+0  53163-5 0  9996
2 43253  86.3922  63.0832 0002062  99.3113 260.8315 14.34217628384634
IRIDIUM 146             
1 43254U 18030F   25215.51744640  .00000027  00000+0  24725-5 0  9999
2 43254  86.3923  63.2215 0002046  98.0140 262.1288 14.34217695384606
IRIDIUM 148             
1 43255U 18030G   25215.83457690  .00000023  00000+0  12506-5 0  9991
2 43255  86.3923  63.1268 0002282  90.2174 269.9283 14.34217586384684
IRIDIUM 142             
1 43256U 18030H   25215.87263208  .00000032  00000+0  43424-5 0  9999
2 43256  86.3919  63.0115 0002134 102.0332 258.1103 14.34217592384659
